start=new Date('2023-02-24T00:00:00.000Z').valueOf();
sats=[{"COUNTRY_CODE":"US","TIME_SYSTEM":"UTC","RCS_SIZE":"LARGE","APOAPSIS":"548.018","PERIAPSIS":"546.392","MEAN_MOTION_DDOT":"0.0000000000000","MEAN_ELEMENT_THEORY":"SGP4","MEAN_ANOMALY":"275.3641","INCLINATION":"53.0548","GP_ID":"226565246","TLE_LINE1":"1 46164U 20057AZ  23054.48068309 -.00000357  00000-0 -50804-5 0  9996","REF_FRAME":"TEME","EPOCH":"2023-02-23T11:32:11.018976","RA_OF_ASC_NODE":"220.5343","LAUNCH_DATE":"2020-08-18","BSTAR":"-0.00000508040000","OBJECT_TYPE":"PAYLOAD","FILE":"3828819","MEAN_MOTION":"15.06402754","NORAD_CAT_ID":"46164","OBJECT_NAME":"STARLINK-1612","SEMIMAJOR_AXIS":"6925.340","MEAN_MOTION_DOT":"-0.00000357","DECAY_DATE":null,"PERIOD":"95.592","CENTER_NAME":"EARTH","SITE":"AFETR","ELEMENT_SET_NO":"999","OBJECT_ID":"2020-057AZ","REV_AT_EPOCH":"14055","TLE_LINE2":"2 46164  53.0548 220.5343 0001174  84.7482 275.3641 15.06402754140550","CLASSIFICATION_TYPE":"U","EPHEMERIS_TYPE":"0","ARG_OF_PERICENTER":"84.7482","ECCENTRICITY":"0.00011740"},{"CENTER_NAME":"EARTH","ELEMENT_SET_NO":"999","SITE":"AFETR","PERIOD":"94.289","ARG_OF_PERICENTER":"269.7491","ECCENTRICITY":"0.00024350","REV_AT_EPOCH":"13909","OBJECT_ID":"2020-057BA","TLE_LINE2":"2 46165  53.0635 235.4270 0002435 269.7491  90.3228 15.27213512139096","EPHEMERIS_TYPE":"0","CLASSIFICATION_TYPE":"U","SEMIMAJOR_AXIS":"6862.284","OBJECT_NAME":"STARLINK-1613","NORAD_CAT_ID":"46165","DECAY_DATE":null,"MEAN_MOTION_DOT":"0.00021096","RA_OF_ASC_NODE":"235.4270","TLE_LINE1":"1 46165U 20057BA  23054.49733171  .00021096  00000-0  79112-3 0  9996","REF_FRAME":"TEME","GP_ID":"226565499","INCLINATION":"53.0635","EPOCH":"2023-02-23T11:56:09.459744","OBJECT_TYPE":"PAYLOAD","BSTAR":"0.00079112000000","MEAN_MOTION":"15.27213512","FILE":"3828819","LAUNCH_DATE":"2020-08-18","TIME_SYSTEM":"UTC","APOAPSIS":"485.820","RCS_SIZE":"LARGE","COUNTRY_CODE":"US","MEAN_ELEMENT_THEORY":"SGP4","MEAN_MOTION_DDOT":"0.0000000000000","MEAN_ANOMALY":"90.3228","PERIAPSIS":"482.478"},{"BSTAR":"0.00069646000000","OBJECT_TYPE":"PAYLOAD","MEAN_MOTION":"15.06398205","FILE":"3828819","LAUNCH_DATE":"2020-08-18","RA_OF_ASC_NODE":"261.7996","TLE_LINE1":"1 46166U 20057BB  23054.20056037  .00010107  00000-0  69646-3 0  9997","REF_FRAME":"TEME","GP_ID":"226564249","INCLINATION":"53.0517","EPOCH":"2023-02-23T04:48:48.415968","MEAN_ELEMENT_THEORY":"SGP4","MEAN_MOTION_DDOT":"0.0000000000000","MEAN_ANOMALY":"260.6369","PERIAPSIS":"546.451","TIME_SYSTEM":"UTC","RCS_SIZE":"LARGE","APOAPSIS":"547.987","COUNTRY_CODE":"US","ARG_OF_PERICENTER":"99.4745","ECCENTRICITY":"0.00011090","OBJECT_ID":"2020-057BB","REV_AT_EPOCH":"13869","TLE_LINE2":"2 46166  53.0517 261.7996 0001109  99.4745 260.6369 15.06398205138693","CLASSIFICATION_TYPE":"U","EPHEMERIS_TYPE":"0","CENTER_NAME":"EARTH","ELEMENT_SET_NO":"999","SITE":"AFETR","PERIOD":"95.592","DECAY_DATE":null,"MEAN_MOTION_DOT":"0.00010107","SEMIMAJOR_AXIS":"6925.354","OBJECT_NAME":"STARLINK-1615","NORAD_CAT_ID":"46166"},{"SEMIMAJOR_AXIS":"6925.462","NORAD_CAT_ID":"46167","OBJECT_NAME":"STARLINK-1626","DECAY_DATE":null,"MEAN_MOTION_DOT":"0.00018366","CENTER_NAME":"EARTH","ELEMENT_SET_NO":"999","SITE":"AFETR","PERIOD":"95.594","ARG_OF_PERICENTER":"115.8460","ECCENTRICITY":"0.00010210","REV_AT_EPOCH":"13943","OBJECT_ID":"2020-057BC","TLE_LINE2":"2 46167  53.0524 259.3481 0001021 115.8460 244.2635 15.06362983139435","EPHEMERIS_TYPE":"0","CLASSIFICATION_TYPE":"U","TIME_SYSTEM":"UTC","APOAPSIS":"548.034","RCS_SIZE":"LARGE","COUNTRY_CODE":"US","MEAN_MOTION_DDOT":"0.0000000000000","MEAN_ELEMENT_THEORY":"SGP4","MEAN_ANOMALY":"244.2635","PERIAPSIS":"546.620","RA_OF_ASC_NODE":"259.3481","INCLINATION":"53.0524","GP_ID":"226572969","REF_FRAME":"TEME","TLE_LINE1":"1 46167U 20057BC  23054.74609902  .00018366  00000-0  12499-2 0  9990","EPOCH":"2023-02-23T17:54:22.955328","BSTAR":"0.00124990000000","OBJECT_TYPE":"PAYLOAD","FILE":"3828966","MEAN_MOTION":"15.06362983","LAUNCH_DATE":"2020-08-18"},{"OBJECT_ID":"2020-057BD","REV_AT_EPOCH":"13942","TLE_LINE2":"2 46168  53.0532 210.7221 0001077  98.3282 261.7829 15.06386502139427","EPHEMERIS_TYPE":"0","CLASSIFICATION_TYPE":"U","ARG_OF_PERICENTER":"98.3282","ECCENTRICITY":"0.00010770","PERIOD":"95.593","CENTER_NAME":"EARTH","ELEMENT_SET_NO":"999","SITE":"AFETR","MEAN_MOTION_DOT":"0.00015982","DECAY_DATE":null,"NORAD_CAT_ID":"46168","OBJECT_NAME":"STARLINK-1627","SEMIMAJOR_AXIS":"6925.390","LAUNCH_DATE":"2020-08-18","OBJECT_TYPE":"PAYLOAD","BSTAR":"0.00108980000000","FILE":"3828819","MEAN_MOTION":"15.06386502","GP_ID":"226564747","INCLINATION":"53.0532","REF_FRAME":"TEME","TLE_LINE1":"1 46168U 20057BD  23054.45951323  .00015982  00000-0  10898-2 0  9998","EPOCH":"2023-02-23T11:01:41.943072","RA_OF_ASC_NODE":"210.7221","PERIAPSIS":"546.509","MEAN_MOTION_DDOT":"0.0000000000000","MEAN_ELEMENT_THEORY":"SGP4","MEAN_ANOMALY":"261.7829","COUNTRY_CODE":"US","TIME_SYSTEM":"UTC","RCS_SIZE":"LARGE","APOAPSIS":"548.001"},{"RA_OF_ASC_NODE":"259.3614","EPOCH":"2023-02-23T19:51:11.007072","REF_FRAME":"TEME","TLE_LINE1":"1 46169U 20057BE  23054.82721073  .00010679  00000-0  73487-3 0  9999","INCLINATION":"53.0558","GP_ID":"226572678","FILE":"3828968","MEAN_MOTION":"15.06392936","OBJECT_TYPE":"PAYLOAD","BSTAR":"0.00073487000000","LAUNCH_DATE":"2020-08-18","RCS_SIZE":"LARGE","APOAPSIS":"547.843","TIME_SYSTEM":"UTC","COUNTRY_CODE":"US","MEAN_ANOMALY":"302.3151","MEAN_ELEMENT_THEORY":"SGP4","MEAN_MOTION_DDOT":"0.0000000000000","PERIAPSIS":"546.627","SITE":"AFETR","ELEMENT_SET_NO":"999","CENTER_NAME":"EARTH","PERIOD":"95.593","ECCENTRICITY":"0.00008780","ARG_OF_PERICENTER":"57.7923","TLE_LINE2":"2 46169  53.0558 259.3614 0000878  57.7923 302.3151 15.06392936139383","CLASSIFICATION_TYPE":"U","EPHEMERIS_TYPE":"0","OBJECT_ID":"2020-057BE","REV_AT_EPOCH":"13938","SEMIMAJOR_AXIS":"6925.370","OBJECT_NAME":"STARLINK-1628","NORAD_CAT_ID":"46169","DECAY_DATE":null,"MEAN_MOTION_DOT":"0.00010679"},{"OBJECT_TYPE":"PAYLOAD","BSTAR":"0.00078247000000","MEAN_MOTION":"15.06413993","FILE":"3828994","LAUNCH_DATE":"2020-08-18","RA_OF_ASC_NODE":"239.1581","REF_FRAME":"TEME","TLE_LINE1":"1 46171U 20057BG  23054.78846613  .00011397  00000-0  78247-3 0  9992","INCLINATION":"53.0515","GP_ID":"226573294","EPOCH":"2023-02-23T18:55:23.473632","MEAN_ELEMENT_THEORY":"SGP4","MEAN_MOTION_DDOT":"0.0000000000000","MEAN_ANOMALY":"285.7684","PERIAPSIS":"546.380","TIME_SYSTEM":"UTC","RCS_SIZE":"LARGE","APOAPSIS":"547.961","COUNTRY_CODE":"US","ARG_OF_PERICENTER":"74.3431","ECCENTRICITY":"0.00011410","REV_AT_EPOCH":"13971","OBJECT_ID":"2020-057BG","TLE_LINE2":"2 46171  53.0515 239.1581 0001141  74.3431 285.7684 15.06413993139710","CLASSIFICATION_TYPE":"U","EPHEMERIS_TYPE":"0","CENTER_NAME":"EARTH","ELEMENT_SET_NO":"999","SITE":"AFETR","PERIOD":"95.591","DECAY_DATE":null,"MEAN_MOTION_DOT":"0.00011397","SEMIMAJOR_AXIS":"6925.306","OBJECT_NAME":"STARLINK-1633","NORAD_CAT_ID":"46171"},{"ECCENTRICITY":"0.00009600","ARG_OF_PERICENTER":"104.3882","TLE_LINE2":"2 46172  53.0523 240.2819 0000960 104.3882 255.7213 15.06390856140279","EPHEMERIS_TYPE":"0","CLASSIFICATION_TYPE":"U","REV_AT_EPOCH":"14027","OBJECT_ID":"2020-057BH","SITE":"AFETR","ELEMENT_SET_NO":"999","CENTER_NAME":"EARTH","PERIOD":"95.593","DECAY_DATE":null,"MEAN_MOTION_DOT":"0.00004311","SEMIMAJOR_AXIS":"6925.377","OBJECT_NAME":"STARLINK-1635","NORAD_CAT_ID":"46172","FILE":"3828819","MEAN_MOTION":"15.06390856","BSTAR":"0.00030822000000","OBJECT_TYPE":"PAYLOAD","LAUNCH_DATE":"2020-08-18","RA_OF_ASC_NODE":"240.2819","EPOCH":"2023-02-23T12:54:27.338688","TLE_LINE1":"1 46172U 20057BH  23054.53781642  .00004311  00000-0  30822-3 0  9991","REF_FRAME":"TEME","INCLINATION":"53.0523","GP_ID":"226564000","MEAN_ANOMALY":"255.7213","MEAN_ELEMENT_THEORY":"SGP4","MEAN_MOTION_DDOT":"0.0000000000000","PERIAPSIS":"546.577","APOAPSIS":"547.906","RCS_SIZE":"LARGE","TIME_SYSTEM":"UTC","COUNTRY_CODE":"US"},{"PERIAPSIS":"546.496","MEAN_ANOMALY":"270.6337","MEAN_MOTION_DDOT":"0.0000000000000","MEAN_ELEMENT_THEORY":"SGP4","COUNTRY_CODE":"US","RCS_SIZE":"LARGE","APOAPSIS":"547.988","TIME_SYSTEM":"UTC","LAUNCH_DATE":"2020-08-18","FILE":"3828819","MEAN_MOTION":"15.06390821","BSTAR":"0.00008572500000","OBJECT_TYPE":"PAYLOAD","EPOCH":"2023-02-23T14:00:49.749696","GP_ID":"226565247","INCLINATION":"53.0532","REF_FRAME":"TEME","TLE_LINE1":"1 46173U 20057BJ  23054.58390914  .00000995  00000-0  85725-4 0  9992","RA_OF_ASC_NODE":"260.0721","MEAN_MOTION_DOT":"0.00000995","DECAY_DATE":null,"NORAD_CAT_ID":"46173","OBJECT_NAME":"STARLINK-1640","SEMIMAJOR_AXIS":"6925.377","EPHEMERIS_TYPE":"0","TLE_LINE2":"2 46173  53.0532 260.0721 0001077  89.4775 270.6337 15.06390821138740","CLASSIFICATION_TYPE":"U","REV_AT_EPOCH":"13874","OBJECT_ID":"2020-057BJ","ECCENTRICITY":"0.00010770","ARG_OF_PERICENTER":"89.4775","PERIOD":"95.593","SITE":"AFETR","ELEMENT_SET_NO":"999","CENTER_NAME":"EARTH"},{"RCS_SIZE":"LARGE","APOAPSIS":"548.195","TIME_SYSTEM":"UTC","COUNTRY_CODE":"US","MEAN_ANOMALY":"291.3206","MEAN_MOTION_DDOT":"0.0000000000000","MEAN_ELEMENT_THEORY":"SGP4","PERIAPSIS":"546.203","RA_OF_ASC_NODE":"258.8490","EPOCH":"2023-02-23T20:33:35.798976","INCLINATION":"53.0525","GP_ID":"226573880","TLE_LINE1":"1 46174U 20057BK  23054.85666434  .00012825  00000-0  87821-3 0  9999","REF_FRAME":"TEME","FILE":"3829020","MEAN_MOTION":"15.06404632","BSTAR":"0.00087821000000","OBJECT_TYPE":"PAYLOAD","LAUNCH_DATE":"2020-08-18","SEMIMAJOR_AXIS":"6925.334","NORAD_CAT_ID":"46174","OBJECT_NAME":"STARLINK-1641","DECAY_DATE":null,"MEAN_MOTION_DOT":"0.00012825","ELEMENT_SET_NO":"999","SITE":"AFETR","CENTER_NAME":"EARTH","PERIOD":"95.592","ECCENTRICITY":"0.00014380","ARG_OF_PERICENTER":"68.7937","CLASSIFICATION_TYPE":"U","TLE_LINE2":"2 46174  53.0525 258.8490 0001438  68.7937 291.3206 15.06404632139441","EPHEMERIS_TYPE":"0","REV_AT_EPOCH":"13944","OBJECT_ID":"2020-057BK"}];
